ONEWEB-0665             
1 55825U 23029AF  24291.58621379 -.00000100  00000+0 -30534-3 0  9990
2 55825  87.9012  50.5424 0002022 104.3161 255.8194 13.14501188 80279
ONEWEB-0666             
1 55826U 23029AG  24291.76720420  .00000065  00000+0  12801-3 0  9993
2 55826  87.9291  35.3031 0001368  99.5931 260.5357 13.20771973 80975
ONEWEB-0667             
1 55827U 23029AH  24292.21542424  .00000135  00000+0  30132-3 0  9996
2 55827  87.9292  35.1475 0001986 107.1917 252.9434 13.20775366 81706
ONEWEB-0669             
1 55828U 23029AJ  24292.28644877  .00000698  00000+0  16845-2 0  9997
2 55828  87.9289  35.1699 0001205 124.5627 235.5621 13.20773135 81714
ONEWEB-0670             
1 55829U 23029AK  24291.56402057  .00000359  00000+0  93270-3 0  9992
2 55829  87.9009  50.5566 0001919 113.4446 246.6886 13.14503942 80295
ONEWEB-0671             
1 55830U 23029AL  24292.45336131  .00004244  00000+0  10565-1 0  9993
2 55830  87.9150  65.6383 0001866 107.2660 252.8677 13.19711424 79564
ONEWEB-0672             
1 55831U 23029AM  24291.52414015  .00000020  00000+0  16331-4 0  9997
2 55831  87.9290  35.3057 0001464  95.6881 264.4419 13.20773559 81612
ONEWEB-0673             
1 55832U 23029AN  24292.42964926  .00000075  00000+0  15601-3 0  9997
2 55832  87.9149  65.6089 0002028  93.7431 266.3933 13.19728020 79580
